H1 CPF  1  MCC 2022 11 10 17  8141 larets
H2  0304206 5557    27944 2022 11 09 23 45 00 2022 11 14 23 57 00   180 1 1  0 0 0
H9
10 0 59892 85500.000000 0     -5610305.192     -4273786.620       173230.732
10 0 59892 85680.000000 0     -5704026.908     -3988189.744     -1161508.313
10 0 59892 85860.000000 0     -5580046.828     -3557347.317     -2453529.992
10 0 59892 86040.000000 0     -5239614.619     -3002851.630     -3655423.235
10 0 59892 86220.000000 0     -4692546.106     -2350654.521     -4723248.819
10 0 59893     0.000000 0     -3956890.232     -1629848.962     -5618154.608
10 0 59893   180.000000 0     -3058261.370      -871361.649     -6307761.331
10 0 59893   360.000000 0     -2028879.816      -106621.444     -6767274.212
10 0 59893   540.000000 0      -906369.914       633733.173     -6980297.238
10 0 59893   720.000000 0       267628.212      1321057.358     -6939344.301
10 0 59893   900.000000 0      1448984.985      1929779.888     -6646056.786
10 0 59893  1080.000000 0      2592710.881      2438331.396     -6111132.087
10 0 59893  1260.000000 0      3654642.495      2829896.200     -5353953.787
10 0 59893  1440.000000 0      4593127.666      3092962.904     -4401934.620
10 0 59893  1620.000000 0      5370662.104      3221660.374     -3289582.472
10 0 59893  1800.000000 0      5955410.263      3215862.190     -2057298.616
10 0 59893  1980.000000 0      6322544.205      3081054.656      -749942.044
10 0 59893  2160.000000 0      6455332.200      2827965.184       584799.303
10 0 59893  2340.000000 0      6345915.058      2471964.439      1898165.289
10 0 59893  2520.000000 0      5995727.383      2032274.716      3142132.854
10 0 59893  2700.000000 0      5415539.090      1531022.589      4271205.142
10 0 59893  2880.000000 0      4625109.160       992182.413      5244096.404
10 0 59893  3060.000000 0      3652478.510       440468.068      6025240.850
10 0 59893  3240.000000 0      2532935.934       -99774.134      6586077.128
10 0 59893  3420.000000 0      1307709.454      -605616.906      6906061.380
10 0 59893  3600.000000 0        22438.649     -1056509.592      6973398.382
10 0 59893  3780.000000 0     -1274527.156     -1435108.567      6785466.855
10 0 59893  3960.000000 0     -2533941.178     -1727948.644      6348928.506
10 0 59893  4140.000000 0     -3707523.908     -1925930.199      5679525.701
10 0 59893  4320.000000 0     -4749835.002     -2024611.715      4801570.464
10 0 59893  4500.000000 0     -5620083.123     -2024296.073      3747107.269
10 0 59893  4680.000000 0     -6283787.113     -1929897.412      2554770.187
10 0 59893  4860.000000 0     -6714216.999     -1750595.424      1268373.123
10 0 59893  5040.000000 0     -6893544.284     -1499292.379       -64731.762
10 0 59893  5220.000000 0     -6813621.764     -1191892.916     -1395459.766
10 0 59893  5400.000000 0     -6476348.485      -846446.981     -2674874.367
10 0 59893  5580.000000 0     -5893602.604      -482206.803     -3856051.033
10 0 59893  5760.000000 0     -5086752.403      -118647.805     -4895839.827
10 0 59893  5940.000000 0     -4085778.729       225496.345     -5756445.751
10 0 59893  6120.000000 0     -2928066.669       533130.553     -6406767.389
10 0 59893  6300.000000 0     -1656936.290       789585.420     -6823452.631
10 0 59893  6480.000000 0      -319986.441       983264.344     -6991659.634
10 0 59893  6660.000000 0      1032685.389      1106130.831     -6905515.669
10 0 59893  6840.000000 0      2350329.083      1154021.561     -6568286.071
10 0 59893  7020.000000 0      3583413.397      1126779.560     -5992248.327
10 0 59893  7200.000000 0      4685458.982      1028202.985     -5198267.721
10 0 59893  7380.000000 0      5614779.258       865812.114     -4215091.666
10 0 59893  7560.000000 0      6336076.452       650443.725     -3078365.849
10 0 59893  7740.000000 0      6821824.457       395685.729     -1829390.818
10 0 59893  7920.000000 0      7053378.814       117175.317      -513649.281
10 0 59893  8100.000000 0      7021747.127      -168208.426       820850.578
10 0 59893  8280.000000 0      6727977.827      -443217.586      2125345.663
10 0 59893  8460.000000 0      6183141.607      -691131.737      3352132.869
10 0 59893  8640.000000 0      5407897.589      -896629.088      4456344.724
10 0 59893  8820.000000 0      4431675.159     -1046587.374      5397605.126
10 0 59893  9000.000000 0      3291512.280     -1130775.045      6141503.500
10 0 59893  9180.000000 0      2030610.668     -1142397.674      6660832.165
10 0 59893  9360.000000 0       696675.415     -1078481.010      6936554.940
10 0 59893  9540.000000 0      -659900.557      -940073.001      6958483.575
10 0 59893  9720.000000 0     -1987937.942      -732255.527      6725643.851
10 0 59893  9900.000000 0     -3237394.674      -463964.946      6246332.145
10 0 59893 10080.000000 0     -4361258.036      -147624.459      5537861.382
10 0 59893 10260.000000 0     -5317349.645       201399.722      4625988.758
10 0 59893 10440.000000 0     -6069970.387       565500.205      3544023.050
10 0 59893 10620.000000 0     -6591310.095       925661.958      2331632.381
10 0 59893 10800.000000 0     -6862556.744      1262391.213      1033387.327
10 0 59893 10980.000000 0     -6874644.273      1556692.619      -302914.785
10 0 59893 11160.000000 0     -6628587.118      1791043.283     -1628075.313
10 0 59893 11340.000000 0     -6135378.918      1950308.538     -2893377.744
10 0 59893 11520.000000 0     -5415466.657      2022552.877     -4052443.000
10 0 59893 11700.000000 0     -4497826.251      1999698.373     -5062967.086
10 0 59893 11880.000000 0     -3418705.818      1877999.286     -5888258.433
10 0 59893 12060.000000 0     -2220116.784      1658316.920     -6498524.688
10 0 59893 12240.000000 0      -948147.637      1346187.189     -6871880.914
10 0 59893 12420.000000 0       348826.462       951682.288     -6995055.145
10 0 59893 12600.000000 0      1621963.732       489077.673     -6863796.274
10 0 59893 12780.000000 0      2823762.344       -23664.643     -6482991.531
10 0 59893 12960.000000 0      3909799.890      -565582.359     -5866483.195
10 0 59893 13140.000000 0      4840351.381     -1113546.084     -5036594.252
10 0 59893 13320.000000 0      5581842.454     -1643215.539     -4023374.652
10 0 59893 13500.000000 0      6108090.034     -2130086.874     -2863570.558
10 0 59893 13680.000000 0      6401274.055     -2550588.287     -1599336.341
10 0 59893 13860.000000 0      6452591.515     -2883175.677      -276724.652
10 0 59893 14040.000000 0      6262555.984     -3109374.010      1055992.515
10 0 59893 14220.000000 0      5840921.827     -3214711.112      2350108.616
10 0 59893 14400.000000 0      5206225.829     -3189492.826      3558297.715
10 0 59893 14580.000000 0      4384969.321     -3029376.221      4636372.772
10 0 59893 14760.000000 0      3410491.228     -2735713.929      5544913.091
10 0 59893 14940.000000 0      2321584.371     -2315656.407      6250702.454
10 0 59893 15120.000000 0      1160924.206     -1782004.048      6727921.148
10 0 59893 15300.000000 0       -26617.905     -1152821.381      6959062.727
10 0 59893 15480.000000 0     -1195711.887      -450825.903      6935554.197
10 0 59893 15660.000000 0     -2302293.575       297427.756      6658070.005
10 0 59893 15840.000000 0     -3305224.805      1062544.529      6136535.694
10 0 59893 16020.000000 0     -4167838.536      1813436.323      5389815.652
10 0 59893 16200.000000 0     -4859319.289      2518583.424      4445083.298
10 0 59893 16380.000000 0     -5355863.189      3147366.083      3336874.163
10 0 59893 16560.000000 0     -5641559.821      3671407.236      2105842.976
10 0 59893 16740.000000 0     -5708955.196      4065865.484       797264.280
10 0 59893 16920.000000 0     -5559258.314      4310609.488      -540676.995
10 0 59893 17100.000000 0     -5202172.735      4391205.258     -1858725.787
10 0 59893 17280.000000 0     -4655361.309      4299664.055     -3108446.306
10 0 59893 17460.000000 0     -3943567.750      4034903.496     -4244065.029
10 0 59893 17640.000000 0     -3097454.921      3602904.272     -5224173.237
10 0 59893 17820.000000 0     -2152235.178      3016566.642     -6013219.383
10 0 59893 18000.000000 0     -1146169.140      2295285.136     -6582750.326
10 0 59893 18180.000000 0      -118997.122      1464262.875     -6912367.434
10 0 59893 18360.000000 0       889623.846       553604.172     -6990380.575
10 0 59893 18540.000000 0      1841626.012      -402778.772     -6814166.564
10 0 59893 18720.000000 0      2701938.530     -1368414.546     -6390227.318
10 0 59893 18900.000000 0      3439751.491     -2305636.033     -5733953.541
10 0 59893 19080.000000 0      4029607.293     -3177021.349     -4869105.019
10 0 59893 19260.000000 0      4452287.091     -3946875.397     -3827004.212
10 0 59893 19440.000000 0      4695452.346     -4582688.372     -2645455.605
10 0 59893 19620.000000 0      4754023.283     -5056516.060     -1367419.345
10 0 59893 19800.000000 0      4630268.080     -5346220.024       -39468.120
10 0 59893 19980.000000 0      4333587.679     -5436499.161      1289918.560
10 0 59893 20160.000000 0      3880004.444     -5319654.363      2572151.767
10 0 59893 20340.000000 0      3291375.280     -4996042.575      3760342.102
10 0 59893 20520.000000 0      2594372.622     -4474199.612      4811038.820
10 0 59893 20700.000000 0      1819287.552     -3770624.062      5685828.245
10 0 59893 20880.000000 0       998714.795     -2909236.651      6352730.177
10 0 59893 21060.000000 0       166179.764     -1920541.514      6787343.175
10 0 59893 21240.000000 0      -645228.802      -840531.276      6973706.626
10 0 59893 21420.000000 0     -1404166.879       290625.067      6904870.300
10 0 59893 21600.000000 0     -2082243.567      1430071.877      6583156.619
10 0 59893 21780.000000 0     -2655089.822      2533884.857      6020106.788
10 0 59893 21960.000000 0     -3103251.662      3558767.434      5236110.237
99
